TLE2=2 23087  71.0535 148.8069 0008870 352.3850   7.7136 14.14377790646584
TLE2=2 25400  98.8276  34.3210 0009575 345.5070  14.5834 14.26052392440722
TLE2=2 22830  98.4893 149.8377 0009702 243.6963 116.3225 14.32867113695891
TLE2=2 23561  98.4475 152.4301 0007973 104.2305 315.2584 14.39780923621039
TLE2=2 24883  98.8588 245.8172 0002695  45.4786 314.6618 14.35503381510264
TLE2=2 23343  97.7092 111.4183 0006776 168.4395 258.2247 14.79421564689086
TLE2=2 22626  82.5153 254.7412 0014910 262.8500  97.1027 14.96599177782266
TLE2=2 23405  70.9846 326.4602 0002376 199.1935 160.9099 14.15567424617982
TLE2=2 23088  70.9999  44.5544 0005475 273.4520  86.5976 14.15010928647869
TLE2=2 22803  70.9930 344.7856 0017802 198.4404 161.6076 14.17234829681306
TLE2=2 24298  70.7595 148.7493 0014029 128.2533 231.9851 14.12419068523416
TLE2=2 23705  71.0220 153.8192 0010187 102.5236 257.7028 14.15500856569631
